[{"OBJECT_NAME":"STARLINK-30715","OBJECT_ID":"2023-148G","EPOCH":"2026-03-09T06:42:52.289568","MEAN_MOTION":15.3017713,"ECCENTRICITY":0.0001146,"INCLINATION":53.1626,"RA_OF_ASC_NODE":15.8909,"ARG_OF_PERICENTER":93.004,"MEAN_ANOMALY":267.1092,"EPHEMERIS_TYPE":0,"CLASSIFICATION_TYPE":"U","NORAD_CAT_ID":57941,"ELEMENT_SET_NO":999,"REV_AT_EPOCH":13850,"BSTAR":-9.6318201e-5,"MEAN_MOTION_DOT":-3.208e-5,"MEAN_MOTION_DDOT":0},{"OBJECT_NAME":"NEXSAT-1","OBJECT_ID":"2024-024E","EPOCH":"2026-03-09T22:47:24.778176","MEAN_MOTION":15.32166372,"ECCENTRICITY":0.00099795,"INCLINATION":97.3124,"RA_OF_ASC_NODE":144.1918,"ARG_OF_PERICENTER":108.5709,"MEAN_ANOMALY":251.6617,"EPHEMERIS_TYPE":0,"CLASSIFICATION_TYPE":"U","NORAD_CAT_ID":58921,"ELEMENT_SET_NO":999,"REV_AT_EPOCH":11669,"BSTAR":0.00031433612,"MEAN_MOTION_DOT":9.702e-5,"MEAN_MOTION_DDOT":0}]
